1 23010U 94012A   13064.51676741  .00000103  00000-0  10000-3 0  9991
2 23010 013.2232 034.0780 0005284 008.0211 352.0094 01.00257364 69707
1 23010U 94012A   13067.50893674  .00000100  00000-0  10000-3 0  9996
2 23010 013.2282 034.0429 0005219 009.6755 350.3607 01.00258669 69733
1 23010U 94012A   13070.50100773  .00000102  00000-0  10000-3 0  9993
2 23010 013.2326 034.0083 0005201 009.8756 350.1480 01.00260011 69766
1 23010U 94012A   13074.49038132  .00000108  00000-0  10000-3 0  9990
2 23010 013.2388 033.9617 0005221 011.1776 348.8300 01.00261790 69800
